[{"OBJECT_NAME":"STARLINK-30141","OBJECT_ID":"2023-119U","EPOCH":"2026-03-09T22:00:01.999584","MEAN_MOTION":15.2107926,"ECCENTRICITY":0.00013582,"INCLINATION":43.0008,"RA_OF_ASC_NODE":79.7468,"ARG_OF_PERICENTER":280.3935,"MEAN_ANOMALY":216.6505,"EPHEMERIS_TYPE":0,"CLASSIFICATION_TYPE":"U","NORAD_CAT_ID":57620,"ELEMENT_SET_NO":999,"REV_AT_EPOCH":573,"BSTAR":0.049108878,"MEAN_MOTION_DOT":0.0121443,"MEAN_MOTION_DDOT":0},{"OBJECT_NAME":"SHIYAN-32 02","OBJECT_ID":"2025-255C","EPOCH":"2026-03-09T22:32:46.464288","MEAN_MOTION":15.40269108,"ECCENTRICITY":0.00088844,"INCLINATION":52.9927,"RA_OF_ASC_NODE":124.9881,"ARG_OF_PERICENTER":227.8848,"MEAN_ANOMALY":132.14,"EPHEMERIS_TYPE":0,"CLASSIFICATION_TYPE":"U","NORAD_CAT_ID":66378,"ELEMENT_SET_NO":999,"REV_AT_EPOCH":1865,"BSTAR":0.00055801382,"MEAN_MOTION_DOT":0.00022495,"MEAN_MOTION_DDOT":0}]
